[{"OBJECT_NAME":"STARLINK-32006","OBJECT_ID":"2024-111P","EPOCH":"2026-03-09T07:10:18.599232","MEAN_MOTION":15.30191387,"ECCENTRICITY":0.00013013,"INCLINATION":53.1608,"RA_OF_ASC_NODE":77.4414,"ARG_OF_PERICENTER":84.3268,"MEAN_ANOMALY":275.7881,"EPHEMERIS_TYPE":0,"CLASSIFICATION_TYPE":"U","NORAD_CAT_ID":60029,"ELEMENT_SET_NO":999,"REV_AT_EPOCH":9897,"BSTAR":2.9737141e-5,"MEAN_MOTION_DOT":5.21e-6,"MEAN_MOTION_DDOT":0},{"OBJECT_NAME":"COSMOS 1953","OBJECT_ID":"1988-050A","EPOCH":"2026-03-09T18:09:26.993952","MEAN_MOTION":15.28528086,"ECCENTRICITY":0.00124769,"INCLINATION":82.5105,"RA_OF_ASC_NODE":158.18,"ARG_OF_PERICENTER":122.2454,"MEAN_ANOMALY":237.9996,"EPHEMERIS_TYPE":0,"CLASSIFICATION_TYPE":"U","NORAD_CAT_ID":19210,"ELEMENT_SET_NO":999,"REV_AT_EPOCH":3779,"BSTAR":0.00029210954,"MEAN_MOTION_DOT":8.158e-5,"MEAN_MOTION_DDOT":0}]
